[{"OBJECT_NAME":"ION SCV-017","OBJECT_ID":"2025-052W","EPOCH":"2026-03-09T17:11:44.577024","MEAN_MOTION":15.26881798,"ECCENTRICITY":0.0023746,"INCLINATION":97.4016,"RA_OF_ASC_NODE":324.7516,"ARG_OF_PERICENTER":44.9875,"MEAN_ANOMALY":315.3282,"EPHEMERIS_TYPE":0,"CLASSIFICATION_TYPE":"U","NORAD_CAT_ID":63230,"ELEMENT_SET_NO":999,"REV_AT_EPOCH":5485,"BSTAR":0.00024539061,"MEAN_MOTION_DOT":6.457e-5,"MEAN_MOTION_DDOT":0},{"OBJECT_NAME":"STARLINK-34992","OBJECT_ID":"2025-192J","EPOCH":"2026-03-09T22:00:01.999584","MEAN_MOTION":15.30163898,"ECCENTRICITY":0.00010017,"INCLINATION":53.16,"RA_OF_ASC_NODE":231.0619,"ARG_OF_PERICENTER":78.2264,"MEAN_ANOMALY":232.9057,"EPHEMERIS_TYPE":0,"CLASSIFICATION_TYPE":"U","NORAD_CAT_ID":65412,"ELEMENT_SET_NO":999,"REV_AT_EPOCH":589,"BSTAR":0.0021838208,"MEAN_MOTION_DOT":0.00064812,"MEAN_MOTION_DDOT":0}]
